[{"OBJECT_NAME":"ONEWEB-0514","OBJECT_ID":"2022-138V","EPOCH":"2025-11-25T01:46:05.405952","MEAN_MOTION":13.19727873,"ECCENTRICITY":0.0001716,"INCLINATION":87.9204,"RA_OF_ASC_NODE":345.5763,"ARG_OF_PERICENTER":92.8358,"MEAN_ANOMALY":267.2971,"EPHEMERIS_TYPE":0,"CLASSIFICATION_TYPE":"U","NORAD_CAT_ID":54132,"ELEMENT_SET_NO":999,"REV_AT_EPOCH":14990,"BSTAR":0.00027238,"MEAN_MOTION_DOT":1.22e-6,"MEAN_MOTION_DDOT":0},{"OBJECT_NAME":"ONEWEB-0515","OBJECT_ID":"2022-138W","EPOCH":"2025-11-25T00:43:16.383936","MEAN_MOTION":13.20773336,"ECCENTRICITY":0.0001641,"INCLINATION":87.919,"RA_OF_ASC_NODE":315.1365,"ARG_OF_PERICENTER":59.2726,"MEAN_ANOMALY":300.8569,"EPHEMERIS_TYPE":0,"CLASSIFICATION_TYPE":"U","NORAD_CAT_ID":54133,"ELEMENT_SET_NO":999,"REV_AT_EPOCH":15235,"BSTAR":-0.00013733,"MEAN_MOTION_DOT":-4.3e-7,"MEAN_MOTION_DDOT":0},{"OBJECT_NAME":"ONEWEB-0516","OBJECT_ID":"2022-138X","EPOCH":"2025-11-25T02:58:52.330656","MEAN_MOTION":13.19723729,"ECCENTRICITY":0.0001952,"INCLINATION":87.9198,"RA_OF_ASC_NODE":345.5875,"ARG_OF_PERICENTER":88.3296,"MEAN_ANOMALY":271.806,"EPHEMERIS_TYPE":0,"CLASSIFICATION_TYPE":"U","NORAD_CAT_ID":54134,"ELEMENT_SET_NO":999,"REV_AT_EPOCH":14991,"BSTAR":-0.00014422,"MEAN_MOTION_DOT":-4.5e-7,"MEAN_MOTION_DDOT":0},{"OBJECT_NAME":"ONEWEB-0517","OBJECT_ID":"2022-138Y","EPOCH":"2025-11-25T02:29:18.689856","MEAN_MOTION":13.19727397,"ECCENTRICITY":0.0001739,"INCLINATION":87.9214,"RA_OF_ASC_NODE":345.5687,"ARG_OF_PERICENTER":101.5633,"MEAN_ANOMALY":258.5695,"EPHEMERIS_TYPE":0,"CLASSIFICATION_TYPE":"U","NORAD_CAT_ID":54135,"ELEMENT_SET_NO":999,"REV_AT_EPOCH":14991,"BSTAR":6.9007e-5,"MEAN_MOTION_DOT":4.1e-7,"MEAN_MOTION_DDOT":0},{"OBJECT_NAME":"ONEWEB-0518","OBJECT_ID":"2022-138Z","EPOCH":"2025-11-25T02:56:35.638944","MEAN_MOTION":13.19727614,"ECCENTRICITY":0.0001994,"INCLINATION":87.9197,"RA_OF_ASC_NODE":345.5899,"ARG_OF_PERICENTER":92.3323,"MEAN_ANOMALY":267.8038,"EPHEMERIS_TYPE":0,"CLASSIFICATION_TYPE":"U","NORAD_CAT_ID":54136,"ELEMENT_SET_NO":999,"REV_AT_EPOCH":14991,"BSTAR":-0.00019325,"MEAN_MOTION_DOT":-6.4e-7,"MEAN_MOTION_DDOT":0},{"OBJECT_NAME":"ONEWEB-0519","OBJECT_ID":"2022-138AA","EPOCH":"2025-11-25T01:43:49.127232","MEAN_MOTION":13.19727296,"ECCENTRICITY":0.0001798,"INCLINATION":87.9211,"RA_OF_ASC_NODE":345.5666,"ARG_OF_PERICENTER":99.6733,"MEAN_ANOMALY":260.4603,"EPHEMERIS_TYPE":0,"CLASSIFICATION_TYPE":"U","NORAD_CAT_ID":54137,"ELEMENT_SET_NO":999,"REV_AT_EPOCH":14991,"BSTAR":0.0001717,"MEAN_MOTION_DOT":8.2e-7,"MEAN_MOTION_DDOT":0},{"OBJECT_NAME":"ONEWEB-0520","OBJECT_ID":"2022-138AB","EPOCH":"2025-11-25T02:33:50.809248","MEAN_MOTION":13.19725338,"ECCENTRICITY":0.0002163,"INCLINATION":87.9213,"RA_OF_ASC_NODE":345.5635,"ARG_OF_PERICENTER":92.5557,"MEAN_ANOMALY":267.5823,"EPHEMERIS_TYPE":0,"CLASSIFICATION_TYPE":"U","NORAD_CAT_ID":54138,"ELEMENT_SET_NO":999,"REV_AT_EPOCH":14990,"BSTAR":-0.00057321,"MEAN_MOTION_DOT":-2.17e-6,"MEAN_MOTION_DDOT":0},{"OBJECT_NAME":"ONEWEB-0521","OBJECT_ID":"2022-138AC","EPOCH":"2025-11-25T01:32:26.272608","MEAN_MOTION":13.19724436,"ECCENTRICITY":0.0001703,"INCLINATION":87.9212,"RA_OF_ASC_NODE":345.5568,"ARG_OF_PERICENTER":97.1135,"MEAN_ANOMALY":263.0191,"EPHEMERIS_TYPE":0,"CLASSIFICATION_TYPE":"U","NORAD_CAT_ID":54139,"ELEMENT_SET_NO":999,"REV_AT_EPOCH":14984,"BSTAR":0.00030577,"MEAN_MOTION_DOT":1.35e-6,"MEAN_MOTION_DDOT":0},{"OBJECT_NAME":"ONEWEB-0522","OBJECT_ID":"2022-138AD","EPOCH":"2025-11-25T02:52:03.969696","MEAN_MOTION":13.1972504,"ECCENTRICITY":0.0002003,"INCLINATION":87.9214,"RA_OF_ASC_NODE":345.5472,"ARG_OF_PERICENTER":95.223,"MEAN_ANOMALY":264.9132,"EPHEMERIS_TYPE":0,"CLASSIFICATION_TYPE":"U","NORAD_CAT_ID":54140,"ELEMENT_SET_NO":999,"REV_AT_EPOCH":14989,"BSTAR":-7.3278e-5,"MEAN_MOTION_DOT":-1.6e-7,"MEAN_MOTION_DDOT":0},{"OBJECT_NAME":"ONEWEB-0523","OBJECT_ID":"2022-138AE","EPOCH":"2025-11-25T00:25:07.235904","MEAN_MOTION":13.20771798,"ECCENTRICITY":0.000109,"INCLINATION":87.9183,"RA_OF_ASC_NODE":315.1588,"ARG_OF_PERICENTER":72.8207,"MEAN_ANOMALY":287.3046,"EPHEMERIS_TYPE":0,"CLASSIFICATION_TYPE":"U","NORAD_CAT_ID":54141,"ELEMENT_SET_NO":999,"REV_AT_EPOCH":15235,"BSTAR":-0.00032987,"MEAN_MOTION_DOT":-1.21e-6,"MEAN_MOTION_DDOT":0},{"OBJECT_NAME":"ONEWEB-0524","OBJECT_ID":"2022-138AF","EPOCH":"2025-11-25T00:09:12.026016","MEAN_MOTION":13.20775078,"ECCENTRICITY":0.0001937,"INCLINATION":87.9186,"RA_OF_ASC_NODE":315.1624,"ARG_OF_PERICENTER":58.7723,"MEAN_ANOMALY":301.36,"EPHEMERIS_TYPE":0,"CLASSIFICATION_TYPE":"U","NORAD_CAT_ID":54142,"ELEMENT_SET_NO":999,"REV_AT_EPOCH":15235,"BSTAR":-0.0027251,"MEAN_MOTION_DOT":-1.095e-5,"MEAN_MOTION_DDOT":0},{"OBJECT_NAME":"ONEWEB-0525","OBJECT_ID":"2022-138AG","EPOCH":"2025-11-25T01:30:09.946368","MEAN_MOTION":13.19724325,"ECCENTRICITY":0.0002168,"INCLINATION":87.9208,"RA_OF_ASC_NODE":345.5789,"ARG_OF_PERICENTER":91.3439,"MEAN_ANOMALY":268.7942,"EPHEMERIS_TYPE":0,"CLASSIFICATION_TYPE":"U","NORAD_CAT_ID":54143,"ELEMENT_SET_NO":999,"REV_AT_EPOCH":14990,"BSTAR":0.00030576,"MEAN_MOTION_DOT":1.35e-6,"MEAN_MOTION_DDOT":0},{"OBJECT_NAME":"ONEWEB-0526","OBJECT_ID":"2022-138AH","EPOCH":"2025-11-25T02:17:55.914720","MEAN_MOTION":13.19727459,"ECCENTRICITY":0.000192,"INCLINATION":87.9212,"RA_OF_ASC_NODE":345.5603,"ARG_OF_PERICENTER":91.1985,"MEAN_ANOMALY":268.9368,"EPHEMERIS_TYPE":0,"CLASSIFICATION_TYPE":"U","NORAD_CAT_ID":54144,"ELEMENT_SET_NO":999,"REV_AT_EPOCH":14988,"BSTAR":3.2293e-5,"MEAN_MOTION_DOT":2.6e-7,"MEAN_MOTION_DDOT":0},{"OBJECT_NAME":"ONEWEB-0529","OBJECT_ID":"2022-138AJ","EPOCH":"2025-11-25T02:22:28.634592","MEAN_MOTION":13.19727566,"ECCENTRICITY":0.0002096,"INCLINATION":87.9197,"RA_OF_ASC_NODE":345.5897,"ARG_OF_PERICENTER":91.784,"MEAN_ANOMALY":268.3533,"EPHEMERIS_TYPE":0,"CLASSIFICATION_TYPE":"U","NORAD_CAT_ID":54145,"ELEMENT_SET_NO":999,"REV_AT_EPOCH":14990,"BSTAR":8.1917e-5,"MEAN_MOTION_DOT":4.6e-7,"MEAN_MOTION_DDOT":0},{"OBJECT_NAME":"ONEWEB-0531","OBJECT_ID":"2022-138AK","EPOCH":"2025-11-24T23:48:43.748928","MEAN_MOTION":13.2076906,"ECCENTRICITY":0.0001356,"INCLINATION":87.9188,"RA_OF_ASC_NODE":315.1583,"ARG_OF_PERICENTER":57.0352,"MEAN_ANOMALY":303.0911,"EPHEMERIS_TYPE":0,"CLASSIFICATION_TYPE":"U","NORAD_CAT_ID":54146,"ELEMENT_SET_NO":999,"REV_AT_EPOCH":15235,"BSTAR":4.3564e-5,"MEAN_MOTION_DOT":3.1e-7,"MEAN_MOTION_DDOT":0},{"OBJECT_NAME":"ONEWEB-0535","OBJECT_ID":"2022-138AL","EPOCH":"2025-11-25T01:21:03.228768","MEAN_MOTION":13.19721005,"ECCENTRICITY":0.0001438,"INCLINATION":87.9212,"RA_OF_ASC_NODE":345.5632,"ARG_OF_PERICENTER":90.5416,"MEAN_ANOMALY":269.5882,"EPHEMERIS_TYPE":0,"CLASSIFICATION_TYPE":"U","NORAD_CAT_ID":54147,"ELEMENT_SET_NO":999,"REV_AT_EPOCH":14991,"BSTAR":0.00014825,"MEAN_MOTION_DOT":7.2e-7,"MEAN_MOTION_DDOT":0},{"OBJECT_NAME":"ONEWEB-0536","OBJECT_ID":"2022-138AM","EPOCH":"2025-11-24T23:30:35.047584","MEAN_MOTION":13.20772543,"ECCENTRICITY":0.0001485,"INCLINATION":87.918,"RA_OF_ASC_NODE":315.2052,"ARG_OF_PERICENTER":53.3891,"MEAN_ANOMALY":306.7378,"EPHEMERIS_TYPE":0,"CLASSIFICATION_TYPE":"U","NORAD_CAT_ID":54148,"ELEMENT_SET_NO":999,"REV_AT_EPOCH":15234,"BSTAR":1.1762e-5,"MEAN_MOTION_DOT":1.8e-7,"MEAN_MOTION_DDOT":0}]
