ONEWEB-0514             
1 54132U 22138V   25329.07367368  .00000122  00000+0  27238-3 0  9991
2 54132  87.9204 345.5763 0001716  92.8358 267.2971 13.19727873149905
ONEWEB-0515             
1 54133U 22138W   25329.03005074 -.00000043  00000+0 -13733-3 0  9990
2 54133  87.9190 315.1365 0001641  59.2726 300.8569 13.20773336152351
ONEWEB-0516             
1 54134U 22138X   25329.12421679 -.00000045  00000+0 -14422-3 0  9992
2 54134  87.9198 345.5875 0001952  88.3296 271.8060 13.19723729149913
ONEWEB-0517             
1 54135U 22138Y   25329.10368854  .00000041  00000+0  69007-4 0  9990
2 54135  87.9214 345.5687 0001739 101.5633 258.5695 13.19727397149911
ONEWEB-0518             
1 54136U 22138Z   25329.12263471 -.00000064  00000+0 -19325-3 0  9996
2 54136  87.9197 345.5899 0001994  92.3323 267.8038 13.19727614149919
ONEWEB-0519             
1 54137U 22138AA  25329.07209638  .00000082  00000+0  17170-3 0  9990
2 54137  87.9211 345.5666 0001798  99.6733 260.4603 13.19727296149919
ONEWEB-0520             
1 54138U 22138AB  25329.10683807 -.00000217  00000+0 -57321-3 0  9993
2 54138  87.9213 345.5635 0002163  92.5557 267.5823 13.19725338149907
ONEWEB-0521             
1 54139U 22138AC  25329.06419297  .00000135  00000+0  30577-3 0  9990
2 54139  87.9212 345.5568 0001703  97.1135 263.0191 13.19724436149844
ONEWEB-0522             
1 54140U 22138AD  25329.11949039 -.00000016  00000+0 -73278-4 0  9996
2 54140  87.9214 345.5472 0002003  95.2230 264.9132 13.19725040149893
ONEWEB-0523             
1 54141U 22138AE  25329.01744486 -.00000121  00000+0 -32987-3 0  9993
2 54141  87.9183 315.1588 0001090  72.8207 287.3046 13.20771798152351
ONEWEB-0524             
1 54142U 22138AF  25329.00638919 -.00001095  00000+0 -27251-2 0  9994
2 54142  87.9186 315.1624 0001937  58.7723 301.3600 13.20775078152350
ONEWEB-0525             
1 54143U 22138AG  25329.06261512  .00000135  00000+0  30576-3 0  9999
2 54143  87.9208 345.5789 0002168  91.3439 268.7942 13.19724325149908
ONEWEB-0526             
1 54144U 22138AH  25329.09578605  .00000026  00000+0  32293-4 0  9995
2 54144  87.9212 345.5603 0001920  91.1985 268.9368 13.19727459149880
ONEWEB-0529             
1 54145U 22138AJ  25329.09894253  .00000046  00000+0  81917-4 0  9995
2 54145  87.9197 345.5897 0002096  91.7840 268.3533 13.19727566149909
ONEWEB-0531             
1 54146U 22138AK  25328.99217302  .00000031  00000+0  43564-4 0  9998
2 54146  87.9188 315.1583 0001356  57.0352 303.0911 13.20769060152353
ONEWEB-0535             
1 54147U 22138AL  25329.05628737  .00000072  00000+0  14825-3 0  9997
2 54147  87.9212 345.5632 0001438  90.5416 269.5882 13.19721005149914
ONEWEB-0536             
1 54148U 22138AM  25328.97957231  .00000018  00000+0  11762-4 0  9990
2 54148  87.9180 315.2052 0001485  53.3891 306.7378 13.20772543152345
